LEMUR-2-AMANDA-SVANTE   
1 48269U 21034B   26068.77637527  .00030872  00000+0  11134-2 0  9996
2 48269  97.5829 144.8625 0002703 205.4721 154.6385 15.28469003265849
STARLINK-30791          
1 58177U 23167C   26067.59888936 -.00001971  00000+0 -63840-4 0  9998
2 58177  42.9987 149.0936 0001321 264.8741  95.1960 15.26736371130825
